{
"type": "FeatureCollection",
"crs": { "type": "name", "properties": { "name": "urn:ogc:def:crs:OGC:1.3:CRS84" } },
"features": [
{ "type": "Feature", "properties": { "id": null, "state_code": 4, "state_name": "Campeche" }, "geometry": { "type": "Polygon", "coordinates": [ [ [ -90.381933790389539, 20.749598167721924 ], [ -90.381933790389539, 20.747052024530628 ], [ -90.38700540019056, 20.555545683071021 ], [ -90.335338375342573, 20.541178160777278 ], [ -90.234540130547117, 20.545361110305837 ], [ -90.22376295971992, 20.519172208909652 ], [ -90.234540130547117, 20.470249886162609 ], [ -90.185725886212197, 20.461156517622268 ], [ -90.1866768130499, 20.436968157304957 ], [ -90.129304227175751, 20.44024176997948 ], [ -90.067493982725708, 20.424964910831704 ], [ -90.048475445971846, 20.45988344602662 ], [ -90.004098860212835, 20.486799816906032 ], [ -89.902349688579676, 20.36476681109464 ], [ -89.838003639229115, 20.287109443760116 ], [ -89.872553980998632, 20.287473178501727 ], [ -89.876040712736838, 20.252918378048427 ], [ -89.840856419742195, 20.250917836969553 ], [ -89.843709200255276, 20.209270209054786 ], [ -89.802502370621909, 20.201631779480898 ], [ -89.793944029082667, 20.136159525990433 ], [ -89.748616516485967, 20.179080225500847 ], [ -89.598687051743028, 19.997940324177229 ], [ -89.604709588381752, 19.938287826552585 ], [ -89.586958954078142, 19.920464824213514 ], [ -89.587909880915845, 19.874452379399383 ], [ -89.525782660853224, 19.775516529680459 ], [ -89.476017489680629, 19.771151712781094 ], [ -89.491866270308847, 19.742052933451998 ], [ -89.468727050591653, 19.700223438166425 ], [ -89.448123635774962, 19.698222897087547 ], [ -89.412622367167756, 19.649300574340508 ], [ -89.296609292969208, 19.551092194104811 ], [ -89.146679828226269, 19.423785034540018 ], [ -89.146996803838832, 19.281564750569064 ], [ -89.146996803838832, 19.132979108619871 ], [ -89.136219633011649, 19.132251639136644 ], [ -89.146996803838832, 18.995123641548282 ], [ -89.148898657514223, 18.877273585265446 ], [ -89.144460998938314, 18.75596804893728 ], [ -89.15238538925243, 18.735598903406913 ], [ -89.150166559964475, 18.450794600723391 ], [ -89.125442462184452, 18.450612733352585 ], [ -89.12132177922112, 18.385686081974541 ], [ -89.138121486687027, 18.385504214603735 ], [ -89.132415925660865, 18.293479324975472 ], [ -89.152068413639867, 18.293479324975472 ], [ -89.158407925891154, 18.221096111394345 ], [ -89.142876120875499, 18.224187856698062 ], [ -89.143193096488062, 18.145803019880312 ], [ -89.20056568236221, 18.144529948284664 ], [ -89.202784511650151, 18.083240644322757 ], [ -89.144460998938314, 18.08251317483953 ], [ -89.163479535692176, 18.057779212409798 ], [ -89.16284558446705, 18.018313992944712 ], [ -89.206905194613498, 18.020860136136008 ], [ -89.206271243388372, 17.953932943679089 ], [ -89.15238538925243, 17.953569208937477 ], [ -89.15238538925243, 17.940292890868577 ], [ -89.152068413639867, 17.815350007124273 ], [ -89.492817197146536, 17.814622537641046 ], [ -90.245634276986863, 17.815531874495079 ], [ -90.360696424347722, 17.812803863932977 ], [ -90.586700036106109, 17.8160774766075 ], [ -90.987674186, 17.815350007124273 ], [ -90.98799116161257, 17.962298842736203 ], [ -91.120169992051899, 17.963390046961045 ], [ -91.144577114219359, 17.975029558692682 ], [ -91.217798480721726, 17.974847691321877 ], [ -91.328422969506676, 18.06287149879239 ], [ -91.385161604155698, 18.064144570388038 ], [ -91.437462580228811, 18.083786246435178 ], [ -91.516389507757339, 18.130526160732536 ], [ -91.515755556532213, 18.169991380197622 ], [ -91.534457117673512, 18.146166754621927 ], [ -91.572494191181235, 18.141983805093368 ], [ -91.611165215914085, 18.095243890796009 ], [ -91.621942386741267, 17.942657166689067 ], [ -91.612750093976899, 17.912830917876743 ], [ -91.638742094207174, 17.873911300524078 ], [ -91.672024533526439, 17.894462313425251 ], [ -91.738906387777519, 17.935928073969212 ], [ -91.771237900259081, 17.944293973026326 ], [ -91.804520339578332, 17.972301548130581 ], [ -91.867281510866079, 17.983213590378991 ], [ -91.909756242949697, 18.013767308674542 ], [ -91.966811853211283, 18.015767849753416 ], [ -91.979173902101294, 18.042866088003638 ], [ -92.013090292645671, 18.051413854431559 ], [ -92.041618097776464, 18.097971901358111 ], [ -92.10818297641498, 18.093607084458746 ], [ -92.160800928100656, 18.155260123162268 ], [ -92.149072830435784, 18.210184069145935 ], [ -92.179185513629392, 18.26874536254574 ], [ -92.171578098927853, 18.338946167677182 ], [ -92.176015757503748, 18.458251162926473 ], [ -92.331650783272849, 18.460251704005348 ], [ -92.362080442079019, 18.461524775600996 ], [ -92.414381418152146, 18.48734994225557 ], [ -92.426109515817018, 18.557005145274591 ], [ -92.466048443000133, 18.616475775528428 ], [ -92.469218199125777, 18.650848708610923 ], [ -92.385853613021354, 18.666671169871119 ], [ -92.204226587021978, 18.679401885827598 ], [ -91.991218975378729, 18.699043561874738 ], [ -91.956985609221789, 18.697406755537475 ], [ -91.909122291724572, 18.636117451575569 ], [ -91.855553413201193, 18.611383489145837 ], [ -91.842240437473492, 18.66248822034256 ], [ -91.740808241452896, 18.680129355310825 ], [ -91.638742094207174, 18.733052760215617 ], [ -91.498638873453743, 18.79052284939058 ], [ -91.405765018972389, 18.881820269535616 ], [ -91.29577448141255, 18.944200777722365 ], [ -91.184833017015038, 18.994396172065056 ], [ -91.113196528575486, 19.035316330496595 ], [ -91.081181991706487, 19.0673249877586 ], [ -90.993062771413605, 19.11988465792178 ], [ -90.899871941319688, 19.183356370333367 ], [ -90.762938476691886, 19.302661365582658 ], [ -90.722682573896208, 19.359222117903588 ], [ -90.725218378796725, 19.401051613189161 ], [ -90.70303008591722, 19.483801266906276 ], [ -90.711905403069025, 19.562186103724027 ], [ -90.68591340283875, 19.630386367776595 ], [ -90.706199842042864, 19.649664309082119 ], [ -90.693203841927726, 19.6889476611764 ], [ -90.66150628067129, 19.758602864195421 ], [ -90.623152231551003, 19.793703266761142 ], [ -90.50935798664041, 19.866086480342268 ], [ -90.447547742190352, 19.9599300436786 ], [ -90.447230766577789, 19.959384441566179 ], [ -90.447547742190352, 19.9599300436786 ], [ -90.472588815582938, 19.993211772536252 ], [ -90.463079547206007, 20.014490254920652 ], [ -90.491290376724237, 20.060866434476399 ], [ -90.480513205897054, 20.096512439154541 ], [ -90.488754571823719, 20.142343016597867 ], [ -90.482098083959869, 20.210543280650434 ], [ -90.489071547436282, 20.215635567033026 ], [ -90.489705498661408, 20.331303214866178 ], [ -90.483999937635261, 20.371495903814491 ], [ -90.502384523163983, 20.497711859154442 ], [ -90.448181693415478, 20.633566785147156 ], [ -90.455155156891905, 20.699220906008428 ], [ -90.41141252235802, 20.75850966889146 ], [ -90.415850180933916, 20.812160543279479 ], [ -90.404439058881607, 20.846533476361973 ], [ -90.379397985489021, 20.848352150070042 ], [ -90.381933790389539, 20.749598167721924 ] ] ] } }
]
}
