{"type":"FeatureCollection","metadata":{"nombre":"Cabeceras municipales de Campeche","fuente":"SEP — Catálogo de Centros de Trabajo (CCT), vía Google My Maps","fecha_corte":null,"nota":"Coordenada = mediana de las escuelas de la localidad cabecera. Punto de anclaje para el coloreado provisional; NO es el centroide del municipio ni sustituye al polígono del INEGI.","procedencia":"calculo","generado_por":"frontend/data/geo/build_geo.py","total":13},"features":[{"type":"Feature","properties":{"cve_mun":"04001","nombre_municipio":"CALKINÍ","cabecera":"CALKINÍ","escuelas_en_cabecera":32,"escuelas_en_municipio":104,"fuente":"SEP — Catálogo de Centros de Trabajo (CCT), vía Google My Maps","fecha_corte":null},"geometry":{"type":"Point","coordinates":[-90.050895,20.374314]}},{"type":"Feature","properties":{"cve_mun":"04002","nombre_municipio":"CAMPECHE","cabecera":"SAN FRANCISCO DE CAMPECHE","escuelas_en_cabecera":334,"escuelas_en_municipio":459,"fuente":"SEP — Catálogo de Centros de Trabajo (CCT), vía Google My Maps","fecha_corte":null},"geometry":{"type":"Point","coordinates":[-90.527615,19.837795]}},{"type":"Feature","properties":{"cve_mun":"04003","nombre_municipio":"CARMEN","cabecera":"CIUDAD DEL CARMEN","escuelas_en_cabecera":244,"escuelas_en_municipio":414,"fuente":"SEP — Catálogo de Centros de Trabajo (CCT), vía Google My Maps","fecha_corte":null},"geometry":{"type":"Point","coordinates":[-91.821305,18.647321]}},{"type":"Feature","properties":{"cve_mun":"04004","nombre_municipio":"CHAMPOTÓN","cabecera":"CHAMPOTÓN","escuelas_en_cabecera":53,"escuelas_en_municipio":225,"fuente":"SEP — Catálogo de Centros de Trabajo (CCT), vía Google My Maps","fecha_corte":null},"geometry":{"type":"Point","coordinates":[-90.723471,19.352939]}},{"type":"Feature","properties":{"cve_mun":"04005","nombre_municipio":"HECELCHAKÁN","cabecera":"HECELCHAKÁN","escuelas_en_cabecera":18,"escuelas_en_municipio":75,"fuente":"SEP — Catálogo de Centros de Trabajo (CCT), vía Google My Maps","fecha_corte":null},"geometry":{"type":"Point","coordinates":[-90.1345,20.177]}},{"type":"Feature","properties":{"cve_mun":"04006","nombre_municipio":"HOPELCHÉN","cabecera":"HOPELCHÉN","escuelas_en_cabecera":10,"escuelas_en_municipio":129,"fuente":"SEP — Catálogo de Centros de Trabajo (CCT), vía Google My Maps","fecha_corte":null},"geometry":{"type":"Point","coordinates":[-89.845,19.7455]}},{"type":"Feature","properties":{"cve_mun":"04007","nombre_municipio":"PALIZADA","cabecera":"PALIZADA","escuelas_en_cabecera":4,"escuelas_en_municipio":70,"fuente":"SEP — Catálogo de Centros de Trabajo (CCT), vía Google My Maps","fecha_corte":null},"geometry":{"type":"Point","coordinates":[-92.095003,18.254958]}},{"type":"Feature","properties":{"cve_mun":"04008","nombre_municipio":"TENABO","cabecera":"TENABO","escuelas_en_cabecera":11,"escuelas_en_municipio":24,"fuente":"SEP — Catálogo de Centros de Trabajo (CCT), vía Google My Maps","fecha_corte":null},"geometry":{"type":"Point","coordinates":[-90.2258,20.0397]}},{"type":"Feature","properties":{"cve_mun":"04009","nombre_municipio":"ESCÁRCEGA","cabecera":"ESCÁRCEGA","escuelas_en_cabecera":53,"escuelas_en_municipio":178,"fuente":"SEP — Catálogo de Centros de Trabajo (CCT), vía Google My Maps","fecha_corte":null},"geometry":{"type":"Point","coordinates":[-90.732,18.6043]}},{"type":"Feature","properties":{"cve_mun":"04010","nombre_municipio":"CALAKMUL","cabecera":"XPUJIL","escuelas_en_cabecera":13,"escuelas_en_municipio":203,"fuente":"SEP — Catálogo de Centros de Trabajo (CCT), vía Google My Maps","fecha_corte":null},"geometry":{"type":"Point","coordinates":[-89.39446,18.507776]}},{"type":"Feature","properties":{"cve_mun":"04011","nombre_municipio":"CANDELARIA","cabecera":"CANDELARIA","escuelas_en_cabecera":19,"escuelas_en_municipio":346,"fuente":"SEP — Catálogo de Centros de Trabajo (CCT), vía Google My Maps","fecha_corte":null},"geometry":{"type":"Point","coordinates":[-91.045943,18.1835]}},{"type":"Feature","properties":{"cve_mun":"04012","nombre_municipio":"SEYBAPLAYA","cabecera":"SEYBAPLAYA","escuelas_en_cabecera":13,"escuelas_en_municipio":20,"fuente":"SEP — Catálogo de Centros de Trabajo (CCT), vía Google My Maps","fecha_corte":null},"geometry":{"type":"Point","coordinates":[-90.685153,19.637415]}},{"type":"Feature","properties":{"cve_mun":"04013","nombre_municipio":"DZITBALCHÉ","cabecera":"DZITBALCHÉ","escuelas_en_cabecera":20,"escuelas_en_municipio":27,"fuente":"SEP — Catálogo de Centros de Trabajo (CCT), vía Google My Maps","fecha_corte":null},"geometry":{"type":"Point","coordinates":[-90.056661,20.320574]}}]}