{"type": "FeatureCollection", "metadata": {"que_es": "Casillas anuladas por sentencia firme del Tribunal Electoral del Estado de Campeche en el proceso 2024, situadas en el sitio donde se instalaron.", "no_es": "Un mapa de riesgo ni de violencia. Marca dónde el Tribunal anuló una casilla, no dónde ocurrió un incidente: la nota del cómputo no dice qué pasó.", "causal": "No documentada en esta fuente. La nota del cómputo cita la sentencia pero no su motivo; para saber por qué se anuló hay que leer el expediente en el Tribunal Electoral del Estado.", "secciones_citadas": ["1", "50", "68", "78", "99", "122"], "secciones_sin_coordenada": ["1", "50", "99"], "por_que_faltan": "El encarte del INE no publica coordenadas. El sitio que no cruza contra el catálogo CCT se queda sin geometría, y esas secciones no se pueden dibujar.", "advertencia": "Ubicaciones del proceso 2024. NO son las casillas de 2027.", "fuente": "IEEC — Cómputos distritales, diputaciones locales MR 2024 (notas del Tribunal) · INE — Encarte del Proceso Electoral Federal 2023-2024 (ubicación)", "fecha_corte": "2024-06", "procedencia": "dato", "generado_por": "backend/datalab/pipeline/build_forensia.py"}, "features": [{"type": "Feature", "geometry": {"type": "Point", "coordinates": [-90.51478, 19.83647]}, "properties": {"seccion": "68", "casillas_anuladas": "68B", "expediente": "TEEC/JIN/DIP/1/2024", "distrito_local": 4, "causal": "No documentada en esta fuente. La nota del cómputo cita la sentencia pero no su motivo; para saber por qué se anuló hay que leer el expediente en el Tribunal Electoral del Estado.", "nota_computo": "1 Casillas 50B, 68B y 78B anuladas por el Tribunal Electoral del Estado de Campeche bajo la sentencia TEEC/JIN/DIP/1/2024.", "inmueble": "JARDÍN DE NIÑOS NUEVO AMANECER", "ubicacion": "JARDÍN DE NIÑOS NUEVO AMANECER, CALLE MANUEL GORDILLO, NÚMERO 3, COLONIA LOMAS DEL SURESTE, SAN FRANCISCO DE CAMPECHE, CÓDIGO POSTAL 24070, CAMPECHE, CAMPECHE, ENTRE CALLE VERACRUZ Y PRIVADA DE LAS LOMAS, ATRÁS DEL CENTRO DE CAPACITACIÓN CEDECA", "nombre_municipio": "CAMPECHE", "nombre_localidad": "SAN FRANCISCO DE CAMPECHE", "estatus_ubicacion": "historica"}}, {"type": "Feature", "geometry": {"type": "Point", "coordinates": [-90.52518, 19.83225]}, "properties": {"seccion": "78", "casillas_anuladas": "78B", "expediente": "TEEC/JIN/DIP/1/2024", "distrito_local": 4, "causal": "No documentada en esta fuente. La nota del cómputo cita la sentencia pero no su motivo; para saber por qué se anuló hay que leer el expediente en el Tribunal Electoral del Estado.", "nota_computo": "1 Casillas 50B, 68B y 78B anuladas por el Tribunal Electoral del Estado de Campeche bajo la sentencia TEEC/JIN/DIP/1/2024.", "inmueble": "JARDÍN DE NIÑOS JOSEFA PASCUAL DE MONTALVO", "ubicacion": "JARDÍN DE NIÑOS JOSEFA PASCUAL DE MONTALVO, SEGUNDA PRIVADA DE CIRICOTE, NÚMERO 2, FRACCIONAMIENTO FLOR DE LIMÓN, SAN FRANCISCO DE CAMPECHE, CÓDIGO POSTAL 24060, CAMPECHE, CAMPECHE, ENTRE CALLE PERÚ Y CALLE FLOR DE LIMÓN", "nombre_municipio": "CAMPECHE", "nombre_localidad": "SAN FRANCISCO DE CAMPECHE", "estatus_ubicacion": "historica"}}, {"type": "Feature", "geometry": {"type": "Point", "coordinates": [-90.478116, 19.881073]}, "properties": {"seccion": "122", "casillas_anuladas": "122S", "expediente": "TEEC/JIN/DIP/5/2024", "distrito_local": 7, "causal": "No documentada en esta fuente. La nota del cómputo cita la sentencia pero no su motivo; para saber por qué se anuló hay que leer el expediente en el Tribunal Electoral del Estado.", "nota_computo": "1 Casillas 1B y 122S anuladas por el Tribunal Electoral del Estado de Campeche bajo la sentencia TEEC/JIN/DIP/5/2024 y confirmadas por la Sala Regional de Xalapa bajo la sentencia SX-JDC-692/2024.", "inmueble": "UNIVERSIDAD MUNDO MAYA", "ubicacion": "UNIVERSIDAD MUNDO MAYA, CALLE 10, NUMERO 17, LOCALIDAD IMI, CP 24560, CAMPECHE, CAMPECHE, A UN COSTADO DE LA VÍA DE FERROCARRIL", "nombre_municipio": "CAMPECHE", "nombre_localidad": "IMI", "estatus_ubicacion": "historica"}}]}