{"type": "Feature", "geometry": {"type": "MultiPolygon", "coordinates": [[[[-91.5308, 18.7791], [-91.5111, 18.7492], [-91.5381, 18.726], [-91.5599, 18.7178], [-91.6024, 18.7395], [-91.6019, 18.7144], [-91.6483, 18.6738], [-91.6681, 18.6632], [-91.6899, 18.6888], [-91.7014, 18.6666], [-91.7318, 18.6617], [-91.7469, 18.6482], [-91.786, 18.6337], [-91.7985, 18.6405], [-91.8294, 18.6299], [-91.8512, 18.6516], [-91.8405, 18.6636], [-91.7888, 18.6675], [-91.7439, 18.6786], [-91.6594, 18.7182], [-91.6415, 18.7313], [-91.5676, 18.7608], [-91.5308, 18.7791]]], [[[-90.384, 20.8008], [-90.3903, 20.5265], [-90.3744, 20.5188], [-90.2536, 20.5143], [-90.2256, 20.5071], [-90.213, 20.4917], [-90.1869, 20.4313], [-90.1691, 20.4245], [-90.1468, 20.4395], [-90.1246, 20.4376], [-90.0869, 20.4004], [-90.0676, 20.4038], [-90.0517, 20.4419], [-90.0202, 20.4695], [-90.0034, 20.4588], [-89.9884, 20.4192], [-89.9623, 20.3927], [-89.9666, 20.3584], [-89.9546, 20.3506], [-89.944, 20.3192], [-89.871, 20.2753], [-89.8391, 20.2231], [-89.8125, 20.1376], [-89.7918, 20.1071], [-89.7584, 20.0879], [-89.715, 20.0757], [-89.6763, 20.0559], [-89.6377, 20.0279], [-89.6135, 19.995], [-89.5908, 19.9337], [-89.5483, 19.8796], [-89.4985, 19.838], [-89.4642, 19.7985], [-89.443, 19.7386], [-89.4328, 19.6685], [-89.4154, 19.6511], [-89.3957, 19.6202], [-89.3618, 19.5825], [-89.3043, 19.5347], [-89.2189, 19.483], [-89.1502, 19.4216], [-89.0976, 19.3661], [-89.0294, 19.2772], [-89.0121, 19.2318], [-89.0212, 19.1647], [-89.0237, 19.1013], [-89.0188, 19.082], [-89.0246, 19.0144], [-89.0681, 18.9971], [-89.0845, 18.9714], [-89.0758, 18.8758], [-89.1058, 18.7139], [-89.1077, 18.6806], [-89.1009, 18.6323], [-89.0613, 18.5849], [-89.0556, 18.5578], [-89.0758, 18.5057], [-89.043, 18.4883], [-89.0493, 18.4589], [-89.0656, 18.4245], [-89.0468, 18.3719], [-89.0324, 18.2275], [-89.0357, 18.1927], [-89.0584, 18.1443], [-89.1256, 18.0632], [-89.156, 18.0361], [-89.1458, 17.942], [-89.1468, 17.8144], [-89.729, 17.8163], [-89.729, 17.8144], [-90.4198, 17.8178], [-90.4198, 17.8188], [-90.9821, 17.8149], [-90.9811, 17.8777], [-91.0855, 17.9106], [-91.14, 17.9381], [-91.1671, 17.9221], [-91.198, 17.9565], [-91.2207, 17.9588], [-91.2604, 17.9815], [-91.286, 18.0086], [-91.3053, 18.0173], [-91.326, 18.041], [-91.342, 18.04], [-91.4067, 18.0536], [-91.472, 18.0714], [-91.5594, 18.0733], [-91.5835, 18.0666], [-91.5956, 18.0168], [-91.5874, 17.9966], [-91.5821, 17.9473], [-91.5942, 17.9197], [-91.6613, 17.9154], [-91.713, 17.8907], [-91.7464, 17.9163], [-91.8014, 17.9337], [-91.8613, 17.9279], [-91.886, 17.9492], [-91.9135, 17.953], [-91.9483, 18.0076], [-91.9947, 18.0318], [-92.0367, 18.0709], [-92.0869, 18.0965], [-92.0946, 18.1159], [-92.1357, 18.1666], [-92.1405, 18.182], [-92.1763, 18.2415], [-92.1787, 18.2656], [-92.2009, 18.2941], [-92.1907, 18.3207], [-92.1893, 18.3531], [-92.2338, 18.4071], [-92.2729, 18.3927], [-92.3005, 18.4332], [-92.3401, 18.4352], [-92.3975, 18.4733], [-92.4227, 18.5081], [-92.4642, 18.6207], [-92.4681, 18.6497], [-92.3971, 18.6651], [-92.3429, 18.6709], [-92.2555, 18.6748], [-92.1744, 18.6845], [-92.0135, 18.6989], [-91.9502, 18.6941], [-91.9149, 18.6405], [-91.8879, 18.6221], [-91.8555, 18.6101], [-91.8797, 18.5651], [-91.9028, 18.5671], [-91.9289, 18.5887], [-91.941, 18.6158], [-91.97, 18.5834], [-91.9971, 18.5994], [-92, 18.5651], [-92.0178, 18.5434], [-91.9941, 18.5154], [-91.9623, 18.5139], [-91.9483, 18.525], [-91.9661, 18.5676], [-91.9347, 18.5661], [-91.9237, 18.5487], [-91.9009, 18.554], [-91.8918, 18.54], [-91.857, 18.5264], [-91.8507, 18.5052], [-91.7734, 18.4883], [-91.7318, 18.4714], [-91.6386, 18.4497], [-91.5792, 18.4415], [-91.5222, 18.4463], [-91.516, 18.4728], [-91.4869, 18.4994], [-91.3681, 18.5439], [-91.3372, 18.5458], [-91.3091, 18.5578], [-91.2942, 18.6211], [-91.2835, 18.6269], [-91.2763, 18.669], [-91.2512, 18.6811], [-91.2371, 18.7313], [-91.2463, 18.7578], [-91.2903, 18.796], [-91.327, 18.7685], [-91.3729, 18.7917], [-91.3845, 18.8289], [-91.3603, 18.8468], [-91.3633, 18.8767], [-91.3227, 18.9095], [-91.3555, 18.9091], [-91.3835, 18.8584], [-91.4139, 18.8308], [-91.4347, 18.8327], [-91.4676, 18.8038], [-91.4724, 18.7825], [-91.4976, 18.7907], [-91.4526, 18.8289], [-91.3976, 18.8883], [-91.3077, 18.939], [-91.2343, 18.9685], [-91.1255, 19.0274], [-91.0811, 19.0675], [-91.0029, 19.1134], [-90.9343, 19.1583], [-90.8599, 19.2187], [-90.8236, 19.2521], [-90.7836, 19.2816], [-90.7401, 19.3303], [-90.7212, 19.3656], [-90.7246, 19.4043], [-90.7131, 19.4289], [-90.7038, 19.4801], [-90.712, 19.5622], [-90.6903, 19.6038], [-90.6855, 19.6304], [-90.7058, 19.6516], [-90.7072, 19.6757], [-90.67, 19.7188], [-90.6623, 19.7579], [-90.6251, 19.7927], [-90.557, 19.8332], [-90.5086, 19.8661], [-90.4932, 19.8849], [-90.4522, 19.9598], [-90.4734, 19.995], [-90.4633, 20.0134], [-90.4792, 20.0309], [-90.4913, 20.0622], [-90.4792, 20.1139], [-90.4956, 20.1622], [-90.4806, 20.1733], [-90.4855, 20.2043], [-90.4898, 20.326], [-90.4961, 20.3424], [-90.4841, 20.3719], [-90.4971, 20.4332], [-90.5019, 20.4999], [-90.4806, 20.5622], [-90.4633, 20.5893], [-90.4483, 20.6337], [-90.442, 20.7139], [-90.4309, 20.7472], [-90.384, 20.8008]]]]}, "properties": {"name": "Campeche", "id": "MX-CAM", "CNTRY": "Mexico", "TYPE": "State"}, "id": "MX-CAM"}